KUIPER-00592            
1 69277U 26118L   26170.52651821  .00013681  00000+0  36826-3 0  9991
2 69277  51.8712  41.8609 0003543 143.8990 216.2236 15.38144370  4343
KUIPER-00593            
1 69278U 26118M   26170.52729899  .00019731  00000+0  52674-3 0  9994
2 69278  51.8712  41.8648 0003742 163.7397 196.3710 15.38106668  4400
KUIPER-00594            
1 69279U 26118N   26170.51827137  .00028069  00000+0  72930-3 0  9999
2 69279  51.8723  41.8050 0000821  97.3949 262.7131 15.38731738  4340
KUIPER-00595            
1 69280U 26118P   26170.52068549  .00018902  00000+0  49786-3 0  9994
2 69280  51.8716  41.8229 0001206 154.3978 205.7069 15.38554866  4371
KUIPER-00596            
1 69281U 26118Q   26170.36636943  .00014468  00000+0  43242-3 0  9990
2 69281  51.8563  43.0100 0012494 192.6798 167.3874 15.34753295  4314
KUIPER-00597            
1 69282U 26118R   26170.53951961  .00011209  00000+0  31418-3 0  9992
2 69282  51.8649  41.9418 0007008 180.3824 179.7158 15.37073829  4344
KUIPER-00599            
1 69283U 26118S   26170.53613089  .00010676  00000+0  29700-3 0  9997
2 69283  51.8692  41.9231 0005929 174.7598 185.3451 15.37367243  4346
KUIPER-00600            
1 69284U 26118T   26170.54425953  .00010288  00000+0  29254-3 0  9993
2 69284  51.8643  41.9704 0008572 180.8638 179.2335 15.36712546  4340
KUIPER-00601            
1 69285U 26118U   26170.53222026 -.00003728  00000+0 -88844-4 0  9993
2 69285  51.8705  41.8983 0003936 163.4317 196.6799 15.37648290  4340
KUIPER-00602            
1 69286U 26118V   26170.52551817  .00012840  00000+0  34533-3 0  9994
2 69286  51.8705  41.8550 0002830 156.5577 203.5540 15.38231517  4347
KUIPER-00603            
1 69287U 26118W   26170.53361540  .00021983  00000+0  59445-3 0  9995
2 69287  51.8672  41.9049 0005503 170.4431 189.6662 15.37631408  4340
KUIPER-00605            
1 69288U 26118X   26170.54014668  .00016717  00000+0  46255-3 0  9997
2 69288  51.8664  41.9466 0007381 175.6286 184.4766 15.37101177  4349
KUIPER-00606            
1 69289U 26118Y   26170.53086293  .00012476  00000+0  34118-3 0  9993
2 69289  51.8697  41.8892 0004640 163.5031 196.6108 15.37737915  4347
KUIPER-00607            
1 69290U 26118Z   26170.53499372  .00012022  00000+0  33175-3 0  9990
2 69290  51.8680  41.9155 0006056 170.8061 189.3038 15.37489909  4349
KUIPER-00608            
1 69291U 26118AA  26170.55487737  .00013294  00000+0  39248-3 0  9994
2 69291  51.8611  42.0340 0008339 184.2249 175.8668 15.35257163  4347
KUIPER-00610            
1 69292U 26118AB  26170.58832212  .00025730  00000+0  68017-3 0  9994
2 69292  51.8727  41.5235 0001825 164.0762 196.0282 15.38247938  4352
KUIPER-00613            
1 69293U 26118AC  26170.56046296  .00001609  00000+0  58789-4 0  9997
2 69293  51.8644  42.0719 0010078 191.0311 169.0455 15.34412608  4349
KUIPER-00618            
1 69294U 26118AD  26170.51878978  .00021501  00000+0  56188-3 0  9996
2 69294  51.8722  41.8068 0001613 100.0498 260.0671 15.38710457  4341
KUIPER-00620            
1 69295U 26118AE  26170.52266113  .00022646  00000+0  59775-3 0  9996
2 69295  51.8719  41.8339 0002759 132.3154 227.8067 15.38368818  4348
STARLINK-37501          
1 69296U 26119A   26170.58335648 -.02695602  00000+0 -51038-1 0  9998
2 69296  97.2855 196.4368 0002025 103.8700 133.8265 15.51992596  4278
STARLINK-37496          
1 69297U 26119B   26170.58335648 -.00782714  00000+0 -13447-1 0  9990
2 69297  97.2858 196.4363 0001638  84.9009 151.5547 15.53422617  4271
STARLINK-37519          
1 69298U 26119C   26170.58335648 -.03012951  00000+0 -58656-1 0  9994
2 69298  97.2855 196.4422 0002201  85.8803 168.4475 15.51683377  4271
STARLINK-37455          
1 69299U 26119D   26170.58335648  .00029114  00000+0  53519-3 0  9994
2 69299  97.2855 196.3514 0001562  95.7241 308.1888 15.49178030  4271
STARLINK-37456          
1 69300U 26119E   26170.58335648  .00050650  00000+0  92970-3 0  9990
2 69300  97.2855 196.4368 0001588  91.1820 150.9068 15.49104409  4275
STARLINK-37630          
1 69301U 26119F   26170.58335648  .00038190  00000+0  70082-3 0  9996
2 69301  97.2852 196.2729 0000883 114.8352 106.6976 15.49174264  4432
STARLINK-37804          
1 69302U 26119G   26170.58335648  .00036735  00000+0  67428-3 0  9990
2 69302  97.2853 196.2698 0001299  99.5782 114.8978 15.49174649  4437
STARLINK-37730          
1 69303U 26119H   26170.58335648 -.02455517  00000+0 -37042-1 0  9995
2 69303  97.2849 196.5027 0001432  91.9049 300.4603 15.58411776  4436
STARLINK-37731          
1 69304U 26119J   26170.54597340  .00030878  00000+0  56661-3 0  9996
2 69304  97.2852 196.2298 0000661  77.3064 282.8261 15.49218677  4399
STARLINK-37734          
1 69305U 26119K   26170.58335648  .00047036  00000+0  86379-3 0  9995
2 69305  97.2856 196.4349 0000579 267.1843 334.3908 15.49108532  4439
STARLINK-37701          
1 69306U 26119L   26170.58335648 -.02475178  00000+0 -41984-1 0  9993
2 69306  97.2852 196.4944 0001231 107.4228 264.6305 15.55317888  4435
