OBJECT_NAME,OBJECT_ID,EPOCH,MEAN_MOTION,ECCENTRICITY,INCLINATION,RA_OF_ASC_NODE,ARG_OF_PERICENTER,MEAN_ANOMALY,EPHEMERIS_TYPE,CLASSIFICATION_TYPE,NORAD_CAT_ID,ELEMENT_SET_NO,REV_AT_EPOCH,BSTAR,MEAN_MOTION_DOT,MEAN_MOTION_DDOT
KUIPER-00592,2026-118L,2026-06-19T12:38:11.173344,15.38144370,.00035436,51.8712,41.8609,143.8990,216.2236,0,U,69277,999,434,.36826431E-3,.13681E-3,0
KUIPER-00593,2026-118M,2026-06-19T12:39:18.632736,15.38106668,.00037425,51.8712,41.8648,163.7397,196.3710,0,U,69278,999,440,.52674161E-3,.19731E-3,0
KUIPER-00594,2026-118N,2026-06-19T12:26:18.646368,15.38731738,.00008213,51.8723,41.8050,97.3949,262.7131,0,U,69279,999,434,.72929558E-3,.28069E-3,0
KUIPER-00595,2026-118P,2026-06-19T12:29:47.226336,15.38554866,.00012065,51.8716,41.8229,154.3978,205.7069,0,U,69280,999,437,.49786241E-3,.18902E-3,0
KUIPER-00596,2026-118Q,2026-06-19T08:47:34.318752,15.34753295,.00124949,51.8563,43.0100,192.6798,167.3874,0,U,69281,999,431,.43241614E-3,.14468E-3,0
KUIPER-00597,2026-118R,2026-06-19T12:56:54.494304,15.37073829,.00070084,51.8649,41.9418,180.3824,179.7158,0,U,69282,999,434,.31417692E-3,.11209E-3,0
KUIPER-00599,2026-118S,2026-06-19T12:52:01.708896,15.37367243,.00059294,51.8692,41.9231,174.7598,185.3451,0,U,69283,999,434,.29699874E-3,.10676E-3,0
KUIPER-00600,2026-118T,2026-06-19T13:03:44.023392,15.36712546,.00085725,51.8643,41.9704,180.8638,179.2335,0,U,69284,999,434,.29253509E-3,.10288E-3,0
KUIPER-00601,2026-118U,2026-06-19T12:46:23.830464,15.37648290,.00039365,51.8705,41.8983,163.4317,196.6799,0,U,69285,999,434,-.88843923E-4,-.3728E-4,0
KUIPER-00602,2026-118V,2026-06-19T12:36:44.769888,15.38231517,.00028302,51.8705,41.8550,156.5577,203.5540,0,U,69286,999,434,.3453342E-3,.1284E-3,0
KUIPER-00603,2026-118W,2026-06-19T12:48:24.370560,15.37631408,.00055035,51.8672,41.9049,170.4431,189.6662,0,U,69287,999,434,.5944533E-3,.21983E-3,0
KUIPER-00605,2026-118X,2026-06-19T12:57:48.673152,15.37101177,.00073812,51.8664,41.9466,175.6286,184.4766,0,U,69288,999,434,.46254849E-3,.16717E-3,0
KUIPER-00606,2026-118Y,2026-06-19T12:44:26.557152,15.37737915,.000464,51.8697,41.8892,163.5031,196.6108,0,U,69289,999,434,.34118005E-3,.12476E-3,0
KUIPER-00607,2026-118Z,2026-06-19T12:50:23.457408,15.37489909,.00060563,51.8680,41.9155,170.8061,189.3038,0,U,69290,999,434,.33174785E-3,.12022E-3,0
KUIPER-00608,2026-118AA,2026-06-19T13:19:01.404768,15.35257163,.00083397,51.8611,42.0340,184.2249,175.8668,0,U,69291,999,434,.39247585E-3,.13294E-3,0
KUIPER-00610,2026-118AB,2026-06-19T14:07:11.031168,15.38247938,.00018253,51.8727,41.5235,164.0762,196.0282,0,U,69292,999,435,.68017345E-3,.2573E-3,0
KUIPER-00613,2026-118AC,2026-06-19T13:27:03.999744,15.34412608,.00100786,51.8644,42.0719,191.0311,169.0455,0,U,69293,999,434,.58789199E-4,.1609E-4,0
KUIPER-00618,2026-118AD,2026-06-19T12:27:03.436992,15.38710457,.00016138,51.8722,41.8068,100.0498,260.0671,0,U,69294,999,434,.56188175E-3,.21501E-3,0
KUIPER-00620,2026-118AE,2026-06-19T12:32:37.921632,15.38368818,.00027592,51.8719,41.8339,132.3154,227.8067,0,U,69295,999,434,.59774584E-3,.22646E-3,0
STARLINK-37501,2026-119A,2026-06-19T14:00:01.999872,15.51992596,.00020252,97.2855,196.4368,103.8700,133.8265,0,U,69296,999,427,-.51037913E-1,-.2695602E-1,0
STARLINK-37496,2026-119B,2026-06-19T14:00:01.999872,15.53422617,.00016386,97.2858,196.4363,84.9009,151.5547,0,U,69297,999,427,-.13447088E-1,-.782714E-2,0
STARLINK-37519,2026-119C,2026-06-19T14:00:01.999872,15.51683377,.00022014,97.2855,196.4422,85.8803,168.4475,0,U,69298,999,427,-.58656467E-1,-.3012951E-1,0
STARLINK-37455,2026-119D,2026-06-19T14:00:01.999872,15.49178030,.00015629,97.2855,196.3514,95.7241,308.1888,0,U,69299,999,427,.53519122E-3,.29114E-3,0
STARLINK-37456,2026-119E,2026-06-19T14:00:01.999872,15.49104409,.00015883,97.2855,196.4368,91.1820,150.9068,0,U,69300,999,427,.9296999E-3,.5065E-3,0
STARLINK-37630,2026-119F,2026-06-19T14:00:01.999872,15.49174264,.00008832,97.2852,196.2729,114.8352,106.6976,0,U,69301,999,443,.70082196E-3,.3819E-3,0
STARLINK-37804,2026-119G,2026-06-19T14:00:01.999872,15.49174649,.00012997,97.2853,196.2698,99.5782,114.8978,0,U,69302,999,443,.67428155E-3,.36735E-3,0
STARLINK-37730,2026-119H,2026-06-19T14:00:01.999872,15.58411776,.00014325,97.2849,196.5027,91.9049,300.4603,0,U,69303,999,443,-.37041611E-1,-.2455517E-1,0
STARLINK-37731,2026-119J,2026-06-19T13:06:12.101760,15.49218677,.00006615,97.2852,196.2298,77.3064,282.8261,0,U,69304,999,439,.5666053E-3,.30878E-3,0
STARLINK-37734,2026-119K,2026-06-19T14:00:01.999872,15.49108532,.00005791,97.2856,196.4349,267.1843,334.3908,0,U,69305,999,443,.86378853E-3,.47036E-3,0
STARLINK-37701,2026-119L,2026-06-19T14:00:01.999872,15.55317888,.00012319,97.2852,196.4944,107.4228,264.6305,0,U,69306,999,443,-.41983615E-1,-.2475178E-1,0
